[{"OBJECT_NAME":"CANX-2","OBJECT_ID":"2008-021H","EPOCH":"2026-03-09T21:45:30.862944","MEAN_MOTION":15.04798248,"ECCENTRICITY":0.00113052,"INCLINATION":97.8556,"RA_OF_ASC_NODE":46.8625,"ARG_OF_PERICENTER":28.5783,"MEAN_ANOMALY":331.606,"EPHEMERIS_TYPE":0,"CLASSIFICATION_TYPE":"U","NORAD_CAT_ID":32790,"ELEMENT_SET_NO":999,"REV_AT_EPOCH":96987,"BSTAR":0.0003958982,"MEAN_MOTION_DOT":5.531e-5,"MEAN_MOTION_DDOT":0},{"OBJECT_NAME":"STARLINK-4421","OBJECT_ID":"2022-099Z","EPOCH":"2026-03-09T21:34:58.605024","MEAN_MOTION":15.05648754,"ECCENTRICITY":8.965e-5,"INCLINATION":97.6028,"RA_OF_ASC_NODE":191.4871,"ARG_OF_PERICENTER":239.5784,"MEAN_ANOMALY":120.5355,"EPHEMERIS_TYPE":0,"CLASSIFICATION_TYPE":"U","NORAD_CAT_ID":53488,"ELEMENT_SET_NO":999,"REV_AT_EPOCH":19608,"BSTAR":6.6836369e-5,"MEAN_MOTION_DOT":9.04e-6,"MEAN_MOTION_DDOT":0}]
